DMSP 5D-3 F16 (USA 172) 
1 28054U 03048A   26181.96811469  .00000008  00000+0  27699-4 0  9990
2 28054  98.9886 205.8873 0008167 106.0086   5.4646 14.14484194171436
DMSP 5D-3 F17 (USA 191) 
1 29522U 06050A   26181.95839013  .00000022  00000+0  33536-4 0  9994
2 29522  98.7379 188.2466 0010584  23.0403 337.1243 14.14994764 14377
DMSP 5D-3 F18 (USA 210) 
1 35951U 09057A   26181.93066109  .00000267  00000+0  16132-3 0  9996
2 35951  98.9044 162.6703 0010391 206.8455 153.2182 14.14904480861538
CYGFM05                 
1 41884U 16078A   26181.96507672  .00028635  00000+0  37901-3 0  9993
2 41884  34.9549 169.3132 0008194 271.7967  88.1818 15.57246850530901
CYGFM08                 
1 41888U 16078E   26181.94719532  .00034103  00000+0  39513-3 0  9993
2 41888  34.9416 149.5860 0008867 295.1528  64.8277 15.60711956531129
CYGFM07                 
1 41890U 16078G   26181.96944137  .00033815  00000+0  39047-3 0  9990
2 41890  34.9435 137.7668 0007180 307.1458  52.8611 15.60817229531153
